ONEWEB-0564             
1 55801U 23029F   25235.71348515  .00000032  00000+0  45674-4 0  9990
2 55801  87.9291 333.7624 0002286 104.7517 255.3870 13.20772945121888
ONEWEB-0638             
1 55802U 23029G   25235.84864690  .00000062  00000+0  13394-3 0  9998
2 55802  87.9097 348.9509 0002363  94.4050 265.7349 13.14503081120337
ONEWEB-0639             
1 55803U 23029H   25235.90590002 -.00000095  00000+0 -27057-3 0  9998
2 55803  87.9267   4.0871 0001428  59.3549 300.7724 13.19725489119690
ONEWEB-0640             
1 55804U 23029J   25235.85816767  .00000132  00000+0  32275-3 0  9990
2 55804  87.9090 348.9351 0002287  83.3679 276.7711 13.14502270120352
ONEWEB-0641             
1 55805U 23029K   25235.90116056 -.00000119  00000+0 -32921-3 0  9996
2 55805  87.9274   4.0599 0001690  93.0746 267.0580 13.19725647119705
ONEWEB-0642             
1 55806U 23029L   25235.89641182 -.00000031  00000+0 -11049-3 0  9999
2 55806  87.9266   4.0964 0001169  72.4705 287.6556 13.19727036119693
ONEWEB-0643             
1 55807U 23029M   25235.82803363  .00000121  00000+0  29315-3 0  9997
2 55807  87.9091 348.9245 0001106  95.2597 264.8659 13.14502682120321
ONEWEB-0644             
1 55808U 23029N   25235.89166857 -.00000102  00000+0 -28827-3 0  9993
2 55808  87.9272   4.1042 0001429  88.0762 272.0535 13.19727358119697
